[{"OBJECT_NAME":"STARLINK-5444","OBJECT_ID":"2022-175L","EPOCH":"2026-03-09T03:46:26.838048","MEAN_MOTION":15.08839083,"ECCENTRICITY":0.00015235,"INCLINATION":53.2191,"RA_OF_ASC_NODE":31.8934,"ARG_OF_PERICENTER":93.3013,"MEAN_ANOMALY":266.8153,"EPHEMERIS_TYPE":0,"CLASSIFICATION_TYPE":"U","NORAD_CAT_ID":54768,"ELEMENT_SET_NO":999,"REV_AT_EPOCH":18004,"BSTAR":-1.0831251e-5,"MEAN_MOTION_DOT":-4.6e-6,"MEAN_MOTION_DDOT":0},{"OBJECT_NAME":"JILIN-01 KUANFU 02B 6","OBJECT_ID":"2024-169F","EPOCH":"2026-03-09T21:43:38.712288","MEAN_MOTION":15.09238946,"ECCENTRICITY":0.00150747,"INCLINATION":97.5549,"RA_OF_ASC_NODE":159.9459,"ARG_OF_PERICENTER":324.4254,"MEAN_ANOMALY":35.5968,"EPHEMERIS_TYPE":0,"CLASSIFICATION_TYPE":"U","NORAD_CAT_ID":61194,"ELEMENT_SET_NO":999,"REV_AT_EPOCH":8086,"BSTAR":0.00036442477,"MEAN_MOTION_DOT":5.751e-5,"MEAN_MOTION_DDOT":0}]
